NORAD_CAT_ID,OBJECT_NAME,OBJECT_TYPE,EPOCH,MEAN_MOTION,ECCENTRICITY,INCLINATION,RA_OF_ASC_NODE,ARG_OF_PERICENTER,MEAN_ANOMALY,BSTAR,MEAN_MOTION_DOT,MEAN_MOTION_DDOT,TLE_LINE0,TLE_LINE1,TLE_LINE2,SEMIMAJOR_AXIS,PERIOD,APOGEE,PERIGEE,DECAYED
52307.0,STARLINK-3755,PAYLOAD,2023-09-22 17:02:20,15.0884024,0.0001368,53.2166,174.7995,89.5682,270.5467,0.00031375,4.709e-05,0.0,0 STARLINK-3755,1 52307U 22041AY  23265.70995826  .00004709  00000-0  31375-3 0  9992,2 52307  53.2166 174.7995 0001368  89.5682 270.5467 15.08840240 80001,6917.88,95.438,540.691,538.798,0.0
52307.0,STARLINK-3755,PAYLOAD,2023-09-22 21:48:29,15.08841739,0.0001281,53.2167,173.9075,94.1828,265.9311,0.00029829,4.463e-05,0.0,0 STARLINK-3755,1 52307U 22041AY  23265.90867745  .00004463  00000-0  29829-3 0  9990,2 52307  53.2167 173.9075 0001281  94.1828 265.9311 15.08841739 78827,6917.875,95.437,540.626,538.854,0.0
52307.0,STARLINK-3755,PAYLOAD,2023-09-23 00:59:15,15.08854097,0.0001229,53.2161,173.3117,89.7025,270.4108,0.00043872,6.704e-05,0.0,0 STARLINK-3755,1 52307U 22041AY  23266.04115289  .00006704  00000-0  43872-3 0  9999,2 52307  53.2161 173.3117 0001229  89.7025 270.4108 15.08854097 80057,6917.837,95.437,540.553,538.852,0.0
52307.0,STARLINK-3755,PAYLOAD,2023-09-23 16:53:06,15.08843101,0.0001372,53.2163,170.3383,91.3074,268.8075,-2.049e-05,-6.14e-06,0.0,0 STARLINK-3755,1 52307U 22041AY  23266.70355302 -.00000614  00000-0 -20490-4 0  9992,2 52307  53.2163 170.3383 0001372  91.3074 268.8075 15.08843101 80152,6917.871,95.437,540.685,538.787,0.0
52307.0,STARLINK-3755,PAYLOAD,2023-09-24 02:25:26,15.08841638,0.0001291,53.2166,168.553,88.4667,271.6473,4.0904e-05,3.63e-06,0.0,0 STARLINK-3755,1 52307U 22041AY  23267.10099575  .00000363  00000-0  40904-4 0  9995,2 52307  53.2166 168.5530 0001291  88.4667 271.6473 15.08841638 79002,6917.875,95.437,540.633,538.847,0.0
52307.0,STARLINK-3755,PAYLOAD,2023-09-24 21:30:03,15.08838029,0.0001298,53.2164,164.9847,88.767,271.3471,3.7252e-05,3.05e-06,0.0,0 STARLINK-3755,1 52307U 22041AY  23267.89587873  .00000305  00000-0  37252-4 0  9992,2 52307  53.2164 164.9847 0001298  88.7670 271.3471 15.08838029 79123,6917.886,95.438,540.649,538.853,0.0
52307.0,STARLINK-3755,PAYLOAD,2023-09-25 02:16:13,15.08847153,0.000144,53.2161,164.0932,86.4428,273.6729,0.00025656,3.798e-05,0.0,0 STARLINK-3755,1 52307U 22041AY  23268.09459560  .00003798  00000-0  25656-3 0  9999,2 52307  53.2161 164.0932 0001440  86.4428 273.6729 15.08847153 80368,6917.859,95.437,540.72,538.727,0.0
52307.0,STARLINK-3755,PAYLOAD,2023-09-25 22:56:13,15.08852344,0.0001369,53.2163,160.2261,89.1935,270.9214,0.00028337,4.226e-05,0.0,0 STARLINK-3755,1 52307U 22041AY  23268.95571202  .00004226  00000-0  28337-3 0  9998,2 52307  53.2163 160.2261 0001369  89.1935 270.9214 15.08852344 79282,6917.843,95.437,540.655,538.761,0.0
52307.0,STARLINK-3755,PAYLOAD,2023-09-26 02:06:59,15.08860319,0.0001367,53.2166,159.631,88.28,271.8348,0.00041878,6.387e-05,0.0,0 STARLINK-3755,1 52307U 22041AY  23269.08818815  .00006387  00000-0  41878-3 0  9992,2 52307  53.2166 159.6310 0001367  88.2800 271.8348 15.08860319 79303,6917.818,95.436,540.629,538.738,0.0
52307.0,STARLINK-3755,PAYLOAD,2023-09-26 21:11:38,15.08828954,0.0001513,53.2164,156.0643,83.67,276.4465,-0.00017228,-3.028e-05,0.0,0 STARLINK-3755,1 52307U 22041AY  23269.88308403 -.00003028  00000-0 -17228-3 0  9990,2 52307  53.2164 156.0643 0001513  83.6700 276.4465 15.08828954 79425,6917.914,95.438,540.826,538.732,0.0
52307.0,STARLINK-3755,PAYLOAD,2023-09-26 22:47:01,15.08830556,0.0001727,53.2165,155.7672,79.311,280.8077,-0.00011827,-2.169e-05,0.0,0 STARLINK-3755,1 52307U 22041AY  23269.94932476 -.00002169  00000-0 -11827-3 0  9994,2 52307  53.2165 155.7672 0001727  79.3110 280.8077 15.08830556 80643,6917.909,95.438,540.969,538.58,0.0
52307.0,STARLINK-3755,PAYLOAD,2023-09-27 09:54:44,15.08828537,0.0001699,53.2162,153.6859,86.3824,273.7362,-4.2515e-05,-9.64e-06,0.0,0 STARLINK-3755,1 52307U 22041AY  23270.41300926 -.00000964  00000-0 -42515-4 0  9997,2 52307  53.2162 153.6859 0001699  86.3824 273.7362 15.08828537 79509,6917.915,95.438,540.956,538.605,0.0
52307.0,STARLINK-3755,PAYLOAD,2023-09-27 22:37:49,15.08830528,0.0001746,53.2164,151.3079,84.677,275.4421,7.2673e-05,8.68e-06,0.0,0 STARLINK-3755,1 52307U 22041AY  23270.94293449  .00000868  00000-0  72673-4 0  9995,2 52307  53.2164 151.3079 0001746  84.6770 275.4421 15.08830528 79580,6917.909,95.438,540.982,538.566,0.0
52307.0,STARLINK-3755,PAYLOAD,2023-09-28 20:53:13,15.08850234,0.0001716,53.2159,147.143,94.067,266.0518,0.00051362,7.898e-05,0.0,0 STARLINK-3755,1 52307U 22041AY  23271.87029028  .00007898  00000-0  51362-3 0  9999,2 52307  53.2159 147.1430 0001716  94.0670 266.0518 15.08850234 79724,6917.849,95.437,540.901,538.527,0.0
52307.0,STARLINK-3755,PAYLOAD,2023-09-28 22:28:36,15.08854785,0.0001709,53.2159,146.8456,93.9003,266.2185,0.00059418,9.185e-05,0.0,0 STARLINK-3755,1 52307U 22041AY  23271.93652880  .00009185  00000-0  59418-3 0  9995,2 52307  53.2159 146.8456 0001709  93.9003 266.2185 15.08854785 80941,6917.835,95.437,540.882,538.518,0.0
52307.0,STARLINK-3755,PAYLOAD,2023-09-30 03:05:31,15.08867775,0.0001462,53.2161,141.4935,84.0293,276.0866,0.00052308,8.053e-05,0.0,0 STARLINK-3755,1 52307U 22041AY  23273.12883699  .00008053  00000-0  52308-3 0  9996,2 52307  53.2161 141.4935 0001462  84.0293 276.0866 15.08867775 81124,6917.795,95.436,540.672,538.649,0.0
52307.0,STARLINK-3755,PAYLOAD,2023-09-30 07:51:41,15.08829585,0.0001107,53.2159,140.6021,107.2722,252.8391,-0.0007842,-0.00012743,0.0,0 STARLINK-3755,1 52307U 22041AY  23273.32756021 -.00012743  00000-0 -78420-3 0  9992,2 52307  53.2159 140.6021 0001107 107.2722 252.8391 15.08829585 81154,6917.912,95.438,540.543,539.011,0.0
52307.0,STARLINK-3755,PAYLOAD,2023-09-30 22:10:09,15.08838149,0.0001421,53.2163,137.9269,96.4084,263.707,0.00029624,4.43e-05,0.0,0 STARLINK-3755,1 52307U 22041AY  23273.92372578  .00004430  00000-0  29624-3 0  9993,2 52307  53.2163 137.9269 0001421  96.4084 263.7070 15.08838149 81242,6917.886,95.438,540.734,538.768,0.0
52307.0,STARLINK-3755,PAYLOAD,2023-10-01 07:42:28,15.0884547,0.0001369,53.2159,136.1425,102.2163,257.8983,0.00077571,0.00012081,0.0,0 STARLINK-3755,1 52307U 22041AY  23274.32116640  .00012081  00000-0  77571-3 0  9999,2 52307  53.2159 136.1425 0001369 102.2163 257.8983 15.08845470 80091,6917.864,95.437,540.676,538.782,0.0
52307.0,STARLINK-3755,PAYLOAD,2023-10-01 22:00:56,15.08856497,0.0001279,53.215,133.4654,103.646,256.4675,0.00078841,0.00012287,0.0,0 STARLINK-3755,1 52307U 22041AY  23274.91732315  .00012287  00000-0  78841-3 0  9996,2 52307  53.2150 133.4654 0001279 103.6460 256.4675 15.08856497 80185,6917.83,95.437,540.58,538.81,0.0
52307.0,STARLINK-3755,PAYLOAD,2023-10-01 23:36:19,15.08860396,0.0001277,53.215,133.1677,101.0759,259.0377,0.00088137,0.00013775,0.0,0 STARLINK-3755,1 52307U 22041AY  23274.98356201  .00013775  00000-0  88137-3 0  9991,2 52307  53.2150 133.1677 0001277 101.0759 259.0377 15.08860396 81405,6917.818,95.436,540.566,538.8,0.0
52307.0,STARLINK-3755,PAYLOAD,2023-10-02 07:33:15,15.0883769,0.000127,53.2153,131.6798,90.006,270.1078,-0.00010721,-1.994e-05,0.0,0 STARLINK-3755,1 52307U 22041AY  23275.31476396 -.00001994  00000-0 -10721-3 0  9993,2 52307  53.2153 131.6798 0001270  90.0060 270.1078 15.08837690 81458,6917.887,95.438,540.631,538.874,0.0
52307.0,STARLINK-3755,PAYLOAD,2023-10-02 20:16:20,15.08845375,0.000136,53.2147,129.3017,93.7393,266.3754,0.00035376,5.347e-05,0.0,0 STARLINK-3755,1 52307U 22041AY  23275.84468382  .00005347  00000-0  35376-3 0  9994,2 52307  53.2147 129.3017 0001360  93.7393 266.3754 15.08845375 80320,6917.864,95.437,540.67,538.788,0.0
52307.0,STARLINK-3755,PAYLOAD,2023-10-02 23:27:06,15.08848416,0.000131,53.2146,128.707,91.6058,268.5084,0.00055571,8.569e-05,0.0,0 STARLINK-3755,1 52307U 22041AY  23275.97716346  .00008569  00000-0  55571-3 0  9992,2 52307  53.2146 128.7070 0001310  91.6058 268.5084 15.08848416 81556,6917.855,95.437,540.626,538.813,0.0
52307.0,STARLINK-3755,PAYLOAD,2023-10-03 20:07:07,15.08845796,0.0001435,53.2148,124.8406,120.1999,239.9135,0.00057255,8.837e-05,0.0,0 STARLINK-3755,1 52307U 22041AY  23276.83828576  .00008837  00000-0  57255-3 0  9996,2 52307  53.2148 124.8406 0001435 120.1999 239.9135 15.08845796 81689,6917.863,95.437,540.72,538.735,0.0
52307.0,STARLINK-3755,PAYLOAD,2023-10-03 21:42:31,15.08843635,0.0001463,53.2147,124.5432,87.8184,272.2976,0.00053545,8.245e-05,0.0,0 STARLINK-3755,1 52307U 22041AY  23276.90452806  .00008245  00000-0  53545-3 0  9994,2 52307  53.2147 124.5432 0001463  87.8184 272.2976 15.08843635 80480,6917.869,95.437,540.746,538.722,0.0
52307.0,STARLINK-3755,PAYLOAD,2023-10-04 07:14:50,15.08841976,0.0001559,53.2146,122.7577,85.1854,274.9316,0.00029871,4.469e-05,0.0,0 STARLINK-3755,1 52307U 22041AY  23277.30196897  .00004469  00000-0  29871-3 0  9993,2 52307  53.2146 122.7577 0001559  85.1854 274.9316 15.08841976 81754,6917.874,95.437,540.818,538.661,0.0
52307.0,STARLINK-3755,PAYLOAD,2023-10-04 19:57:55,15.08848125,0.0001479,53.2158,120.3774,90.2896,269.8266,0.00032938,4.959e-05,0.0,0 STARLINK-3755,1 52307U 22041AY  23277.83188658  .00004959  00000-0  32938-3 0  9999,2 52307  53.2158 120.3774 0001479  90.2896 269.8266 15.08848125 80629,6917.856,95.437,540.744,538.697,0.0
52307.0,STARLINK-3755,PAYLOAD,2023-10-05 07:05:36,15.08845207,0.0001575,53.216,118.2981,81.51,278.607,0.00024417,3.601e-05,0.0,0 STARLINK-3755,1 52307U 22041AY  23278.29556695  .00003601  00000-0  24417-3 0  9996,2 52307  53.2160 118.2981 0001575  81.5100 278.6070 15.08845207 80692,6917.864,95.437,540.819,538.64,0.0
52307.0,STARLINK-3755,PAYLOAD,2023-10-05 19:48:42,15.08839414,0.0001538,53.2173,115.9186,90.2527,269.8642,1.1451e-06,-2.7e-06,0.0,0 STARLINK-3755,1 52307U 22041AY  23278.82548997 -.00000270  00000-0  11451-5 0  9997,2 52307  53.2173 115.9186 0001538  90.2527 269.8642 15.08839414 81989,6917.882,95.438,540.811,538.683,0.0
